{
  "type": "FeatureCollection",
  "features": [
    {
      "type": "Feature",
      "properties": {
        "norad_id": 44334,
        "name": "EUTELSAT 7C",
        "group": "eutelsat",
        "lat": 0.01704377829382877,
        "lon": -150.43756207218647,
        "alt_km": 35776.90455005377,
        "timestamp": "2025-12-20T07:33:50.475314+00:00",
        "meta_object_name": "EUTELSAT 7C",
        "meta_object_id": "2019-034B",
        "meta_epoch": "2025-12-19T13:17:54.868128",
        "meta_mean_motion": 1.00270496,
        "meta_eccentricity": 0.0003054,
        "meta_inclination": 0.0733,
        "meta_ra_of_asc_node": 179.964,
        "meta_arg_of_pericenter": 72.3162,
        "meta_mean_anomaly": 42.5872,
        "meta_ephemeris_type": 0,
        "meta_classification_type": "U",
        "meta_norad_cat_id": 44334,
        "meta_element_set_no": 999,
        "meta_rev_at_epoch": 503,
        "meta_bstar": 0,
        "meta_mean_motion_dot": 7.3e-07,
        "meta_mean_motion_ddot": 0,
        "tle_line1": "1 44334U 19034B   25353.55410727  .00000073  00000+0  00000+0 0  9992",
        "tle_line2": "2 44334   0.0733 179.9640 0003054  72.3162  42.5872  1.00270496  5037"
      },
      "geometry": {
        "type": "Point",
        "coordinates": [
          -150.43756207218647,
          0.01704377829382877
        ]
      }
    },
    {
      "type": "Feature",
      "properties": {
        "norad_id": 44624,
        "name": "EUTELSAT 5 WEST B",
        "group": "eutelsat",
        "lat": -0.05882657887627889,
        "lon": -162.42569352925247,
        "alt_km": 35782.14958794491,
        "timestamp": "2025-12-20T07:33:50.475326+00:00",
        "meta_object_name": "EUTELSAT 5 WEST B",
        "meta_object_id": "2019-067A",
        "meta_epoch": "2025-12-19T18:22:30.046656",
        "meta_mean_motion": 1.0027128,
        "meta_eccentricity": 0.00029941,
        "meta_inclination": 0.0681,
        "meta_ra_of_asc_node": 333.6647,
        "meta_arg_of_pericenter": 295.2265,
        "meta_mean_anomaly": 90.35,
        "meta_ephemeris_type": 0,
        "meta_classification_type": "U",
        "meta_norad_cat_id": 44624,
        "meta_element_set_no": 999,
        "meta_rev_at_epoch": 2263,
        "meta_bstar": 0,
        "meta_mean_motion_dot": -1.8e-07,
        "meta_mean_motion_ddot": 0,
        "tle_line1": "1 44624U 19067A   25353.76562554 -.00000018  00000+0  00000+0 0  9999",
        "tle_line2": "2 44624   0.0681 333.6647 0002994 295.2265  90.3500  1.00271280 22635"
      },
      "geometry": {
        "type": "Point",
        "coordinates": [
          -162.42569352925247,
          -0.05882657887627889
        ]
      }
    },
    {
      "type": "Feature",
      "properties": {
        "norad_id": 45027,
        "name": "EUTELSAT KONNECT",
        "group": "eutelsat",
        "lat": 0.04492091094293228,
        "lon": -150.21168634516107,
        "alt_km": 35785.4166277508,
        "timestamp": "2025-12-20T07:33:50.475351+00:00",
        "meta_object_name": "EUTELSAT KONNECT",
        "meta_object_id": "2020-005B",
        "meta_epoch": "2025-12-19T13:17:54.868128",
        "meta_mean_motion": 1.00269378,
        "meta_eccentricity": 0.00012882,
        "meta_inclination": 0.0703,
        "meta_ra_of_asc_node": 95.1584,
        "meta_arg_of_pericenter": 191.2571,
        "meta_mean_anomaly": 8.6712,
        "meta_ephemeris_type": 0,
        "meta_classification_type": "U",
        "meta_norad_cat_id": 45027,
        "meta_element_set_no": 999,
        "meta_rev_at_epoch": 2253,
        "meta_bstar": 0,
        "meta_mean_motion_dot": 7.4e-07,
        "meta_mean_motion_ddot": 0,
        "tle_line1": "1 45027U 20005B   25353.55410727  .00000074  00000+0  00000+0 0  9993",
        "tle_line2": "2 45027   0.0703  95.1584 0001288 191.2571   8.6712  1.00269378 22539"
      },
      "geometry": {
        "type": "Point",
        "coordinates": [
          -150.21168634516107,
          0.04492091094293228
        ]
      }
    },
    {
      "type": "Feature",
      "properties": {
        "norad_id": 49056,
        "name": "EUTELSAT QUANTUM",
        "group": "eutelsat",
        "lat": -0.03330809159621846,
        "lon": -109.71210659477845,
        "alt_km": 35773.64105556955,
        "timestamp": "2025-12-20T07:33:50.475365+00:00",
        "meta_object_name": "EUTELSAT QUANTUM",
        "meta_object_id": "2021-069B",
        "meta_epoch": "2025-12-19T20:49:38.856576",
        "meta_mean_motion": 1.00271835,
        "meta_eccentricity": 0.00033318,
        "meta_inclination": 0.0181,
        "meta_ra_of_asc_node": 30.6611,
        "meta_arg_of_pericenter": 248.4465,
        "meta_mean_anomaly": 169.7189,
        "meta_ephemeris_type": 0,
        "meta_classification_type": "U",
        "meta_norad_cat_id": 49056,
        "meta_element_set_no": 999,
        "meta_rev_at_epoch": 1613,
        "meta_bstar": 0,
        "meta_mean_motion_dot": 1.5e-06,
        "meta_mean_motion_ddot": 0,
        "tle_line1": "1 49056U 21069B   25353.86781084  .00000150  00000+0  00000+0 0  9996",
        "tle_line2": "2 49056   0.0181  30.6611 0003331 248.4465 169.7189  1.00271835 16135"
      },
      "geometry": {
        "type": "Point",
        "coordinates": [
          -109.71210659477845,
          -0.03330809159621846
        ]
      }
    },
    {
      "type": "Feature",
      "properties": {
        "norad_id": 53765,
        "name": "EUTELSAT KONNECT VHTS",
        "group": "eutelsat",
        "lat": 0.042400351920070245,
        "lon": -154.6626104822452,
        "alt_km": 35776.19684695846,
        "timestamp": "2025-12-20T07:33:50.475377+00:00",
        "meta_object_name": "EUTELSAT KONNECT VHTS",
        "meta_object_id": "2022-110A",
        "meta_epoch": "2025-12-19T09:50:55.049568",
        "meta_mean_motion": 1.00273229,
        "meta_eccentricity": 0.00025267,
        "meta_inclination": 0.0629,
        "meta_ra_of_asc_node": 100.2857,
        "meta_arg_of_pericenter": 132.7445,
        "meta_mean_anomaly": 5.7025,
        "meta_ephemeris_type": 0,
        "meta_classification_type": "U",
        "meta_norad_cat_id": 53765,
        "meta_element_set_no": 999,
        "meta_rev_at_epoch": 502,
        "meta_bstar": 0,
        "meta_mean_motion_dot": 4.2e-07,
        "meta_mean_motion_ddot": 0,
        "tle_line1": "1 53765U 22110A   25353.41035937  .00000042  00000+0  00000+0 0  9996",
        "tle_line2": "2 53765   0.0629 100.2857 0002526 132.7445   5.7025  1.00273229  5021"
      },
      "geometry": {
        "type": "Point",
        "coordinates": [
          -154.6626104822452,
          0.042400351920070245
        ]
      }
    },
    {
      "type": "Feature",
      "properties": {
        "norad_id": 54048,
        "name": "EUTELSAT HOTBIRD 13F",
        "group": "eutelsat",
        "lat": -0.06121048023292159,
        "lon": -144.41887964762174,
        "alt_km": 35794.43596521526,
        "timestamp": "2025-12-20T07:33:50.475389+00:00",
        "meta_object_name": "EUTELSAT HOTBIRD 13F",
        "meta_object_id": "2022-134A",
        "meta_epoch": "2025-12-19T18:27:37.056960",
        "meta_mean_motion": 1.00272066,
        "meta_eccentricity": 0.00023556,
        "meta_inclination": 0.0491,
        "meta_ra_of_asc_node": 294.8043,
        "meta_arg_of_pericenter": 69.7798,
        "meta_mean_anomaly": 13.9259,
        "meta_ephemeris_type": 0,
        "meta_classification_type": "U",
        "meta_norad_cat_id": 54048,
        "meta_element_set_no": 999,
        "meta_rev_at_epoch": 1157,
        "meta_bstar": 0,
        "meta_mean_motion_dot": 1.12e-06,
        "meta_mean_motion_ddot": 0,
        "tle_line1": "1 54048U 22134A   25353.76917890  .00000112  00000+0  00000+0 0  9990",
        "tle_line2": "2 54048   0.0491 294.8043 0002355  69.7798  13.9259  1.00272066 11575"
      },
      "geometry": {
        "type": "Point",
        "coordinates": [
          -144.41887964762174,
          -0.06121048023292159
        ]
      }
    },
    {
      "type": "Feature",
      "properties": {
        "norad_id": 54225,
        "name": "EUTELSAT HOTBIRD 13G",
        "group": "eutelsat",
        "lat": -0.029779506147182725,
        "lon": -144.3932670507004,
        "alt_km": 35780.245040190486,
        "timestamp": "2025-12-20T07:33:50.475401+00:00",
        "meta_object_name": "EUTELSAT HOTBIRD 13G",
        "meta_object_id": "2022-146A",
        "meta_epoch": "2025-12-19T18:27:37.056960",
        "meta_mean_motion": 1.0027241,
        "meta_eccentricity": 0.00017892,
        "meta_inclination": 0.0515,
        "meta_ra_of_asc_node": 225.8744,
        "meta_arg_of_pericenter": 308.1908,
        "meta_mean_anomaly": 204.4423,
        "meta_ephemeris_type": 0,
        "meta_classification_type": "U",
        "meta_norad_cat_id": 54225,
        "meta_element_set_no": 999,
        "meta_rev_at_epoch": 566,
        "meta_bstar": 0,
        "meta_mean_motion_dot": 1.12e-06,
        "meta_mean_motion_ddot": 0,
        "tle_line1": "1 54225U 22146A   25353.76917890  .00000112  00000+0  00000+0 0  9990",
        "tle_line2": "2 54225   0.0515 225.8744 0001789 308.1908 204.4423  1.00272410  5660"
      },
      "geometry": {
        "type": "Point",
        "coordinates": [
          -144.3932670507004,
          -0.029779506147182725
        ]
      }
    }
  ]
}